[{"OBJECT_NAME":"CBERS 4A","OBJECT_ID":"2019-093E","EPOCH":"2026-03-09T22:45:31.017888","MEAN_MOTION":14.81577142,"ECCENTRICITY":0.00028121,"INCLINATION":97.7589,"RA_OF_ASC_NODE":139.3418,"ARG_OF_PERICENTER":122.1597,"MEAN_ANOMALY":237.989,"EPHEMERIS_TYPE":0,"CLASSIFICATION_TYPE":"U","NORAD_CAT_ID":44883,"ELEMENT_SET_NO":999,"REV_AT_EPOCH":33638,"BSTAR":0.00022932403,"MEAN_MOTION_DOT":1.75e-5,"MEAN_MOTION_DDOT":0},{"OBJECT_NAME":"GAOFEN-12 05","OBJECT_ID":"2024-186A","EPOCH":"2026-03-10T00:24:03.082176","MEAN_MOTION":14.80867025,"ECCENTRICITY":8.035e-5,"INCLINATION":97.9136,"RA_OF_ASC_NODE":78.47,"ARG_OF_PERICENTER":119.8507,"MEAN_ANOMALY":240.2785,"EPHEMERIS_TYPE":0,"CLASSIFICATION_TYPE":"U","NORAD_CAT_ID":61571,"ELEMENT_SET_NO":999,"REV_AT_EPOCH":7466,"BSTAR":8.8744173e-5,"MEAN_MOTION_DOT":6.33e-6,"MEAN_MOTION_DDOT":0}]
